Name,Street,StreetNr,Zip Code,City,Legitimate
Sari Hemstreet,Floragatan,65,58146,Linkoping,True
Cristopher Bakken,Larmtorget,52,39146,Kalmar,True
Savanna Mcmullin,Larmtorget,19,39146,Kalmar,True
Roderick Gover,Bergsbogatan,82,50136,Boras,True
Cristi Stanger,Mineralgatan,7,63157,Eskilstuna,True
Florentina Brassard,Floragatan,85,58146,Linkoping,True
Jeanie Lansford,Bohusgatan,90,30147,Halmstad,True
Tiffaney Irvine,Floragatan,85,58146,Linkoping,True
Cleo Kent,Floragatan,65,58146,Linkoping,True
,Floragatan,85,58146,Linkoping,False
Nilsa Teneyck,Bergsbogatan,82,50136,Boras,True
Aurore Wanner,Floragatan,85,58146,Linkoping,True
Perry Didonna,Krokiusgatan,75,35174,Vaxjo,True
Jerica Granillo,Larmtorget,52,39146,Kalmar,True
Aurore Wanner,Floragatan,85,58146,Linkoping,True
,,75,,Vaxjo,False
Savanna Mcmullin,Larmtorget,19,,Kalmar,False
,Larmtorget,52,39146,Kalmar,False
Sari Hemstreet,Floragatan,65,,Linkoping,False
Patricia Blackwelder,Mineralgatan,7,63157,Eskilstuna,True
Hazel Maltos,Ekorrstigen,55,97146,Lulea,True
Savanna Mcmullin,Larmtorget,19,39146,Kalmar,True
Savanna Mcmullin,Larmtorget,19,39146,Kalmar,True
Sari Hemstreet,Floragatan,65,58146,Linkoping,True
Patricia Blackwelder,Mineralgatan,7,63157,Eskilstuna,True
Jefferson Blakeslee,Betesbacken,49,85176,Sundsvall,True
Velva Tarbox,Ekorrstigen,55,97146,Lulea,True
Buddy Rowser,Ekorrstigen,55,97146,Lulea,True
Jeanie Lansford,Bohusgatan,90,30147,Halmstad,True
Jeanmarie Westover,Floragatan,85,58146,Linkoping,True
Cristi Stanger,Mineralgatan,7,63157,Eskilstuna,True
Sari Hemstreet,Floragatan,65,58146,Linkoping,True
Jeanie Lansford,Bohusgatan,90,30147,Halmstad,True
Jeanmarie Westover,Floragatan,85,58146,Linkoping,True
Hazel Maltos,Ekorrstigen,55,97146,Lulea,True
Simona Sherron,Mineralgatan,7,63157,Eskilstuna,True
Nilsa Teneyck,Bergsbogatan,82,50136,Boras,True
Jefferson Blakeslee,Betesbacken,49,85176,Sundsvall,True
,Larmtorget,52,39146,Kalmar,False
Jerica Granillo,Larmtorget,52,39146,Kalmar,True
Roderick Gover,Bergsbogatan,82,50136,Boras,True
Patricia Blackwelder,Krokiusgatan,75,35174,Vaxjo,True
Jefferson Blakeslee,Betesbacken,49,85176,Sundsvall,True
Simona Sherron,Mineralgatan,7,63157,Eskilstuna,True
Elza Prophet,,75,35174,Vaxjo,False
Buddy Rowser,Ekorrstigen,55,97146,Lulea,True
Sari Hemstreet,Floragatan,65,58146,Linkoping,True
Jeanie Lansford,Bohusgatan,90,30147,Halmstad,True
,Bohusgatan,90,30147,Halmstad,False
Savanna Mcmullin,Larmtorget,19,39146,Kalmar,True
Jeanie Lansford,Bohusgatan,90,30147,Halmstad,True
Jerica Granillo,Larmtorget,52,39146,Kalmar,True
Jeanie Lansford,Bohusgatan,90,30147,Halmstad,True
Hazel Maltos,,55,97146,Lulea,False
Savanna Mcmullin,,19,39146,Kalmar,False
Buddy Rowser,Ekorrstigen,55,97146,Lulea,True
Jefferson Blakeslee,Bergsbogatan,82,50136,Boras,True
Patricia Blackwelder,Mineralgatan,7,63157,Eskilstuna,True
Florentina Brassard,,85,58146,Linkoping,False
,Krokiusgatan,75,35174,Vaxjo,False
Sari Hemstreet,Floragatan,65,58146,Linkoping,True
Yael Ribera,Betesbacken,49,85176,Sundsvall,True
Nilsa Teneyck,Bergsbogatan,82,50136,Boras,True
Jeanie Lansford,Bohusgatan,90,30147,Halmstad,True
Yael Ribera,Betesbacken,49,85176,Sundsvall,True
Patricia Blackwelder,Mineralgatan,7,63157,Eskilstuna,True
Buddy Rowser,Larmtorget,52,39146,Kalmar,True
Buddy Rowser,Larmtorget,52,39146,Kalmar,True
Florentina Brassard,Floragatan,85,58146,Linkoping,True
Aurore Wanner,Floragatan,85,58146,Linkoping,True
Jeanie Lansford,Bohusgatan,90,30147,Halmstad,True
Jefferson Blakeslee,Bergsbogatan,82,50136,Boras,True
Velva Tarbox,Ekorrstigen,55,,Lulea,False
Savanna Mcmullin,Larmtorget,19,39146,Kalmar,True
Perry Didonna,Krokiusgatan,75,35174,Vaxjo,True
Velva Tarbox,Ekorrstigen,55,97146,Lulea,True
Cristi Stanger,Mineralgatan,7,63157,Eskilstuna,True
Sari Hemstreet,Floragatan,65,58146,Linkoping,True
Elza Prophet,Krokiusgatan,75,35174,Vaxjo,True
Zelma Crandell,Mineralgatan,7,63157,Eskilstuna,True
Roderick Gover,Bergsbogatan,82,50136,Boras,True
Buddy Rowser,Ekorrstigen,55,97146,Lulea,True
Jefferson Blakeslee,Betesbacken,49,85176,Sundsvall,True
Jeanie Lansford,Bohusgatan,90,30147,Halmstad,True
Hazel Maltos,Ekorrstigen,55,97146,Lulea,True
Jeanmarie Westover,Floragatan,85,,Linkoping,False
Buddy Rowser,,55,97146,Lulea,False
Jeanmarie Westover,Floragatan,85,58146,Linkoping,True
Velva Tarbox,Ekorrstigen,55,97146,Lulea,True
Jefferson Blakeslee,Bergsbogatan,82,50136,Boras,True
Jefferson Blakeslee,Betesbacken,49,85176,Sundsvall,True
Wilbert Chavous,Larmtorget,52,39146,Kalmar,True
Velva Tarbox,Ekorrstigen,55,97146,Lulea,True
Buddy Rowser,Larmtorget,52,39146,Kalmar,True
Florentina Brassard,Floragatan,85,,Linkoping,False
Nilsa Teneyck,Bergsbogatan,82,50136,Boras,True
Florentina Brassard,Floragatan,85,58146,Linkoping,True
Elza Prophet,Krokiusgatan,75,35174,Vaxjo,True
Cristopher Bakken,Larmtorget,52,39146,Kalmar,True
Patricia Blackwelder,Krokiusgatan,75,35174,Vaxjo,True
