Name,Street,StreetNr,Zip Code,City,Legitimate
Lula Groom,Pilgatan,60,41133,Goteborg,True
Lieselotte Halberg,Boberg,94,65135,Kalrlstad,True
Flora Yearsley,Pilgatan,60,41133,Goteborg,True
Hazel Maltos,Bergsbogatan,59,50136,Boras,True
Lula Groom,Pilgatan,60,41133,Goteborg,True
Anneliese Laber,Allhelgonagatan,2,11125,Stockholm,True
Lieselotte Halberg,Akutgatan,45,22175,Lund,True
Ellie Graziano,Boberg,94,65135,Kalrlstad,True
Lieselotte Halberg,Boberg,94,65135,Kalrlstad,True
Verda Faris,Floragatan,17,58146,Linkoping,True
Anneliese Laber,Allhelgonagatan,2,11125,Stockholm,True
Flora Yearsley,Pilgatan,60,41133,Goteborg,True
Gladis Dunlap,Boberg,94,65135,Kalrlstad,True
Bernetta Rountree,Floragatan,71,58146,Linkoping,True
Perry Didonna,Larmtorget,22,39146,Kalmar,True
Buddy Rowser,Floragatan,17,58146,Linkoping,True
Myong Lofthouse,Akutgatan,45,22175,Lund,True
Perry Didonna,Larmtorget,22,39146,Kalmar,True
Alexa Grego,Floragatan,17,58146,Linkoping,True
Maryland Kraushaar,Ekorrstigen,66,97146,Lulea,True
Lieselotte Halberg,Boberg,94,65135,Kalrlstad,True
Ellie Graziano,Boberg,94,65135,Kalrlstad,True
Adrien Emerson,Floragatan,88,58146,Linkoping,True
Lieselotte Halberg,Akutgatan,45,22175,Lund,True
Alexa Grego,Floragatan,17,58146,Linkoping,True
Joleen Bright,Ekorrstigen,66,97146,Lulea,True
Pearlene Robison,Larmtorget,22,39146,Kalmar,True
Anneliese Laber,Allhelgonagatan,2,11125,Stockholm,True
Maryland Kraushaar,Ekorrstigen,66,97146,Lulea,True
Cyndi Mourer,Floragatan,71,58146,Linkoping,True
Perry Didonna,Larmtorget,22,39146,Kalmar,True
Maryland Kraushaar,Ekorrstigen,66,97146,Lulea,True
Anneliese Laber,Allhelgonagatan,2,11125,Stockholm,True
Elza Prophet,Floragatan,71,58146,Linkoping,True
Flora Yearsley,Pilgatan,60,41133,Goteborg,True
Flora Yearsley,Pilgatan,60,41133,Goteborg,True
Myong Lofthouse,Akutgatan,45,22175,Lund,True
Anneliese Laber,Allhelgonagatan,2,11125,Stockholm,True
Buddy Rowser,Floragatan,17,58146,Linkoping,True
Dwight Sparr,Bergsbogatan,59,50136,Boras,True
Buddy Rowser,Floragatan,17,58146,Linkoping,True
Alexa Grego,Floragatan,17,58146,Linkoping,True
Myong Lofthouse,Akutgatan,45,22175,Lund,True
Lula Groom,Pilgatan,60,41133,Goteborg,True
Bernetta Rountree,Floragatan,71,58146,Linkoping,True
Perry Didonna,Larmtorget,22,39146,Kalmar,True
Dwight Sparr,Bergsbogatan,59,50136,Boras,True
Adrien Emerson,Floragatan,88,58146,Linkoping,True
Anneliese Laber,Allhelgonagatan,2,11125,Stockholm,True
Maryland Kraushaar,Ekorrstigen,66,97146,Lulea,True
Ardelle Geisler,Akutgatan,45,22175,Lund,True
Maryland Kraushaar,Ekorrstigen,66,97146,Lulea,True
Gladis Dunlap,Boberg,94,65135,Kalrlstad,True
Anneliese Laber,Allhelgonagatan,2,11125,Stockholm,True
Adrien Emerson,Floragatan,88,58146,Linkoping,True
Maryland Kraushaar,Ekorrstigen,66,97146,Lulea,True
Sari Hemstreet,Floragatan,88,58146,Linkoping,True
Lieselotte Halberg,Akutgatan,45,22175,Lund,True
Buddy Rowser,Floragatan,17,58146,Linkoping,True
Bernetta Rountree,Floragatan,71,58146,Linkoping,True
Cristopher Bakken,Floragatan,17,58146,Linkoping,True
Alexa Grego,Floragatan,17,58146,Linkoping,True
Elza Prophet,Floragatan,71,58146,Linkoping,True
Flora Yearsley,Larmtorget,22,39146,Kalmar,True
Verda Faris,Floragatan,17,58146,Linkoping,True
Bernetta Rountree,Floragatan,71,58146,Linkoping,True
Anneliese Laber,Allhelgonagatan,2,11125,Stockholm,True
Francene Nutting,Larmtorget,22,39146,Kalmar,True
Pearlene Robison,Larmtorget,22,39146,Kalmar,True
Perry Didonna,Larmtorget,22,39146,Kalmar,True
Flora Yearsley,Larmtorget,22,39146,Kalmar,True
Dwight Sparr,Bergsbogatan,59,50136,Boras,True
Flora Yearsley,Larmtorget,22,39146,Kalmar,True
Myong Lofthouse,Akutgatan,45,22175,Lund,True
Sari Hemstreet,Floragatan,88,58146,Linkoping,True
Kyoko Jarboe,Floragatan,88,58146,Linkoping,True
Hazel Maltos,Bergsbogatan,59,50136,Boras,True
Anneliese Laber,Allhelgonagatan,2,11125,Stockholm,True
Anneliese Laber,Allhelgonagatan,2,11125,Stockholm,True
Hazel Maltos,Bergsbogatan,59,50136,Boras,True
Pearlene Robison,Larmtorget,22,39146,Kalmar,True
Lula Groom,Pilgatan,60,41133,Goteborg,True
Ellie Graziano,Boberg,94,65135,Kalrlstad,True
Alexa Grego,Floragatan,17,58146,Linkoping,True
Dwight Sparr,Bergsbogatan,59,50136,Boras,True
Alexa Grego,Floragatan,17,58146,Linkoping,True
Alexa Grego,Floragatan,17,58146,Linkoping,True
Ellie Graziano,Boberg,94,65135,Kalrlstad,True
Cyndi Mourer,Floragatan,71,58146,Linkoping,True
Buddy Rowser,Floragatan,17,58146,Linkoping,True
Maryland Kraushaar,Ekorrstigen,66,97146,Lulea,True
Perry Didonna,Larmtorget,22,39146,Kalmar,True
Myong Lofthouse,Akutgatan,45,22175,Lund,True
Maryland Kraushaar,Ekorrstigen,66,97146,Lulea,True
Gladis Dunlap,Boberg,94,65135,Kalrlstad,True
Lieselotte Halberg,Akutgatan,45,22175,Lund,True
Flora Yearsley,Pilgatan,60,41133,Goteborg,True
Flora Yearsley,Pilgatan,60,41133,Goteborg,True
Adrien Emerson,Floragatan,88,58146,Linkoping,True
Ardelle Geisler,Akutgatan,45,22175,Lund,True
